<?xml version="1.0" encoding="UTF-8" standalone="no" ?>
<q:quakeml xmlns:q="http://quakeml.org/xmlns/quakeml/1.2" xmlns="http://quakeml.org/xmlns/bed/1.2" xmlns:anssevent="http://anss.org/xmlns/event/0.1" xmlns:catalog="http://anss.org/xmlns/catalog/0.1" xmlns:tensor="http://anss.org/xmlns/tensor/0.1">

  <eventParameters xmlns="http://quakeml.org/xmlns/bed/1.2" publicID="quakeml:us.anss.org/eventparameters/7000rlq1/1767197195">
    <comment>
      <text>HYDRA - us</text>
    </comment>
    <event catalog:dataid="us7000rlq1" catalog:datasource="us" catalog:eventid="7000rlq1" catalog:eventsource="us" publicID="quakeml:us.anss.org/event/7000rlq1">
      <description>
        <text>State of Yap, Federated States of Micronesia</text>
        <type>Flinn-Engdahl region</type>
      </description>
      <description>
        <text>189.0 km (117.5 miles) NNW of Fais, Yap, Micronesia (pop. 215)
297.2 km (184.7 miles) NE of Colonia, Yap, Micronesia (pop. 7371)
563.6 km (350.2 miles) WSW of Tamuning, Tamuning, Guam (pop. 19685)
563.6 km (350.2 miles) WSW of Tamuning-Tumon-Harmon Village, Tamuning, Guam (pop. 19685)
563.8 km (350.3 miles) WSW of Mangilao Village, Mangilao, Guam (pop. 15191)
</text>
        <type>nearest cities</type>
      </description>
      <amplitude publicID="quakeml:us.anss.org/amp/im_abk31_bhz_--/mb">
        <genericAmplitude>
          <value>2.6e-09</value>
        </genericAmplitude>
        <type>AMB</type>
        <unit>m</unit>
        <period>
          <value>1.1500</value>
        </period>
        <timeWindow>
          <begin>0.00</begin>
          <end>65.00</end>
          <reference>2025-12-31T13:57:06.85Z</reference>
        </timeWindow>
        <pickID>quakeml:us.anss.org/pick/7000rlq1/us_a8619_bpid-7006873778</pickID>
        <waveformID channelCode="BHZ" locationCode="--" networkCode="IM" stationCode="ABK31"/>
        <scalingTime>
          <value>2025-12-31T13:57:27.25Z</value>
        </scalingTime>
        <magnitudeHint>mb</magnitudeHint>
        <evaluationMode>automatic</evaluationMode>
      </amplitude>
      <amplitude publicID="quakeml:us.anss.org/amp/kr_ark_hhz_00/mb">
        <genericAmplitude>
          <value>2.4e-09</value>
        </genericAmplitude>
        <type>AMB</type>
        <unit>m</unit>
        <period>
          <value>0.7600</value>
        </period>
        <timeWindow>
          <begin>0.00</begin>
          <end>65.00</end>
          <reference>2025-12-31T13:56:14.16Z</reference>
        </timeWindow>
        <pickID>quakeml:us.anss.org/pick/7000rlq1/us_a8619_bpid-7006873703</pickID>
        <waveformID channelCode="HHZ" locationCode="00" networkCode="KR" stationCode="ARK"/>
        <scalingTime>
          <value>2025-12-31T13:56:34.86Z</value>
        </scalingTime>
        <magnitudeHint>mb</magnitudeHint>
        <evaluationMode>automatic</evaluationMode>
      </amplitude>
      <amplitude publicID="quakeml:us.anss.org/amp/kr_arls_hhz_00/mb">
        <genericAmplitude>
          <value>3.8e-09</value>
        </genericAmplitude>
        <type>AMB</type>
        <unit>m</unit>
        <period>
          <value>0.8800</value>
        </period>
        <timeWindow>
          <begin>0.00</begin>
          <end>65.00</end>
          <reference>2025-12-31T13:56:02.33Z</reference>
        </timeWindow>
        <pickID>quakeml:us.anss.org/pick/7000rlq1/us_a8619_bpid-7006873701</pickID>
        <waveformID channelCode="HHZ" locationCode="00" networkCode="KR" stationCode="ARLS"/>
        <scalingTime>
          <value>2025-12-31T13:56:24.87Z</value>
        </scalingTime>
        <magnitudeHint>mb</magnitudeHint>
        <evaluationMode>automatic</evaluationMode>
      </amplitude>
      <amplitude publicID="quakeml:us.anss.org/amp/kr_baet_hhz_00/mb">
        <genericAmplitude>
          <value>4.65e-09</value>
        </genericAmplitude>
        <type>AMB</type>
        <unit>m</unit>
        <period>
          <value>0.8000</value>
        </period>
        <timeWindow>
          <begin>0.00</begin>
          <end>65.00</end>
          <reference>2025-12-31T13:55:58.72Z</reference>
        </timeWindow>
        <pickID>quakeml:us.anss.org/pick/7000rlq1/us_a8619_bpid-7006873700</pickID>
        <waveformID channelCode="HHZ" locationCode="00" networkCode="KR" stationCode="BAET"/>
        <scalingTime>
          <value>2025-12-31T13:56:20.12Z</value>
        </scalingTime>
        <magnitudeHint>mb</magnitudeHint>
        <evaluationMode>automatic</evaluationMode>
      </amplitude>
      <amplitude publicID="quakeml:us.anss.org/amp/ge_bndi_bhz_--/mb">
        <genericAmplitude>
          <value>2.301e-07</value>
        </genericAmplitude>
        <type>AMB</type>
        <unit>m</unit>
        <period>
          <value>1.5000</value>
        </period>
        <timeWindow>
          <begin>0.00</begin>
          <end>65.00</end>
          <reference>2025-12-31T13:49:42.46Z</reference>
        </timeWindow>
        <pickID>quakeml:us.anss.org/pick/7000rlq1/us_a8619_bpid-7006873728</pickID>
        <waveformID channelCode="BHZ" locationCode="--" networkCode="GE" stationCode="BNDI"/>
        <scalingTime>
          <value>2025-12-31T13:50:24.01Z</value>
        </scalingTime>
        <magnitudeHint>mb</magnitudeHint>
        <evaluationMode>automatic</evaluationMode>
      </amplitude>
      <amplitude publicID="quakeml:us.anss.org/amp/ii_bork_bhz_10/mb">
        <genericAmplitude>
          <value>7.5e-09</value>
        </genericAmplitude>
        <type>AMB</type>
        <unit>m</unit>
        <period>
          <value>1.0500</value>
        </period>
        <timeWindow>
          <begin>0.00</begin>
          <end>65.00</end>
          <reference>2025-12-31T13:56:29.69Z</reference>
        </timeWindow>
        <pickID>quakeml:us.anss.org/pick/7000rlq1/us_a8619_bpid-7006873710</pickID>
        <waveformID channelCode="BHZ" locationCode="10" networkCode="II" stationCode="BORK"/>
        <scalingTime>
          <value>2025-12-31T13:56:50.615Z</value>
        </scalingTime>
        <magnitudeHint>mb</magnitudeHint>
        <evaluationMode>automatic</evaluationMode>
      </amplitude>
      <amplitude publicID="quakeml:us.anss.org/amp/ak_c23k_bhz_--/mb">
        <genericAmplitude>
          <value>3e-09</value>
        </genericAmplitude>
        <type>AMB</type>
        <unit>m</unit>
        <period>
          <value>1.0800</value>
        </period>
        <timeWindow>
          <begin>0.00</begin>
          <end>65.00</end>
          <reference>2025-12-31T13:56:51.47Z</reference>
        </timeWindow>
        <pickID>quakeml:us.anss.org/pick/7000rlq1/us_a8619_bpid-7006873772</pickID>
        <waveformID channelCode="BHZ" locationCode="--" networkCode="AK" stationCode="C23K"/>
        <scalingTime>
          <value>2025-12-31T13:57:27.17Z</value>
        </scalingTime>
        <magnitudeHint>mb</magnitudeHint>
        <evaluationMode>automatic</evaluationMode>
      </amplitude>
      <amplitude publicID="quakeml:us.anss.org/amp/ak_c27k_bhz_--/mb">
        <genericAmplitude>
          <value>6.7e-09</value>
        </genericAmplitude>
        <type>AMB</type>
        <unit>m</unit>
        <period>
          <value>1.4800</value>
        </period>
        <timeWindow>
          <begin>0.00</begin>
          <end>65.00</end>
          <reference>2025-12-31T13:57:04.74Z</reference>
        </timeWindow>
        <pickID>quakeml:us.anss.org/pick/7000rlq1/us_a8619_bpid-7006873776</pickID>
        <waveformID channelCode="BHZ" locationCode="--" networkCode="AK" stationCode="C27K"/>
        <scalingTime>
          <value>2025-12-31T13:57:51.24Z</value>
        </scalingTime>
        <magnitudeHint>mb</magnitudeHint>
        <evaluationMode>automatic</evaluationMode>
      </amplitude>
      <amplitude publicID="quakeml:us.anss.org/amp/ak_cast_bhz_--/mb">
        <genericAmplitude>
          <value>3.7e-09</value>
        </genericAmplitude>
        <type>AMB</type>
        <unit>m</unit>
        <period>
          <value>0.7600</value>
        </period>
        <timeWindow>
          <begin>0.00</begin>
          <end>65.00</end>
          <reference>2025-12-31T13:56:36.97Z</reference>
        </timeWindow>
        <pickID>quakeml:us.anss.org/pick/7000rlq1/us_a8619_bpid-7006873708</pickID>
        <waveformID channelCode="BHZ" locationCode="--" networkCode="AK" stationCode="CAST"/>
        <scalingTime>
          <value>2025-12-31T13:56:58.15Z</value>
        </scalingTime>
        <magnitudeHint>mb</magnitudeHint>
        <evaluationMode>automatic</evaluationMode>
      </amplitude>
      <amplitude publicID="quakeml:us.anss.org/amp/ak_chi_bhz_--/mb">
        <genericAmplitude>
          <value>2.7875e-07</value>
        </genericAmplitude>
        <type>AMB</type>
        <unit>m</unit>
        <period>
          <value>1.4000</value>
        </period>
        <timeWindow>
          <begin>0.00</begin>
          <end>65.00</end>
          <reference>2025-12-31T13:56:15.26Z</reference>
        </timeWindow>
        <pickID>quakeml:us.anss.org/pick/7000rlq1/us_a8619_bpid-7006873763</pickID>
        <waveformID channelCode="BHZ" locationCode="--" networkCode="AK" stationCode="CHI"/>
        <scalingTime>
          <value>2025-12-31T13:56:35.86Z</value>
        </scalingTime>
        <magnitudeHint>mb</magnitudeHint>
        <evaluationMode>automatic</evaluationMode>
      </amplitude>
      <amplitude publicID="quakeml:us.anss.org/amp/kr_chvk_hhz_00/mb">
        <genericAmplitude>
          <value>6.05e-09</value>
        </genericAmplitude>
        <type>AMB</type>
        <unit>m</unit>
        <period>
          <value>0.5800</value>
        </period>
        <timeWindow>
          <begin>0.00</begin>
          <end>65.00</end>
          <reference>2025-12-31T13:56:11.72Z</reference>
        </timeWindow>
        <pickID>quakeml:us.anss.org/pick/7000rlq1/us_a8619_bpid-7006873702</pickID>
        <waveformID channelCode="HHZ" locationCode="00" networkCode="KR" stationCode="CHVK"/>
        <scalingTime>
          <value>2025-12-31T13:56:32.61Z</value>
        </scalingTime>
        <magnitudeHint>mb</magnitudeHint>
        <evaluationMode>automatic</evaluationMode>
      </amplitude>
      <amplitude publicID="quakeml:us.anss.org/amp/im_cm31_bhz_--/mb">
        <genericAmplitude>
          <value>1.965e-08</value>
        </genericAmplitude>
        <type>AMB</type>
        <unit>m</unit>
        <period>
          <value>1.3000</value>
        </period>
        <timeWindow>
          <begin>0.00</begin>
          <end>65.00</end>
          <reference>2025-12-31T13:53:03.95Z</reference>
        </timeWindow>
        <pickID>quakeml:us.anss.org/pick/7000rlq1/us_a8619_bpid-7006873745</pickID>
        <waveformID channelCode="BHZ" locationCode="--" networkCode="IM" stationCode="CM31"/>
        <scalingTime>
          <value>2025-12-31T13:53:25.625Z</value>
        </scalingTime>
        <magnitudeHint>mb</magnitudeHint>
        <evaluationMode>automatic</evaluationMode>
      </amplitude>
      <amplitude publicID="quakeml:us.anss.org/amp/au_coen_bhz_00/mb">
        <genericAmplitude>
          <value>1.405e-08</value>
        </genericAmplitude>
        <type>AMB</type>
        <unit>m</unit>
        <period>
          <value>1.3000</value>
        </period>
        <timeWindow>
          <begin>0.00</begin>
          <end>65.00</end>
          <reference>2025-12-31T13:50:54.28Z</reference>
        </timeWindow>
        <pickID>quakeml:us.anss.org/pick/7000rlq1/us_a8619_bpid-7006873735</pickID>
        <waveformID channelCode="BHZ" locationCode="00" networkCode="AU" stationCode="COEN"/>
        <scalingTime>
          <value>2025-12-31T13:51:26.03Z</value>
        </scalingTime>
        <magnitudeHint>mb</magnitudeHint>
        <evaluationMode>automatic</evaluationMode>
      </amplitude>
      <amplitude publicID="quakeml:us.anss.org/amp/ak_cold_bhz_--/mb">
        <genericAmplitude>
          <value>4.25e-09</value>
        </genericAmplitude>
        <type>AMB</type>
        <unit>m</unit>
        <period>
          <value>1.0800</value>
        </period>
        <timeWindow>
          <begin>0.00</begin>
          <end>65.00</end>
          <reference>2025-12-31T13:56:48.69Z</reference>
        </timeWindow>
        <pickID>quakeml:us.anss.org/pick/7000rlq1/us_a8619_bpid-7006873771</pickID>
        <waveformID channelCode="BHZ" locationCode="--" networkCode="AK" stationCode="COLD"/>
        <scalingTime>
          <value>2025-12-31T13:57:10.25Z</value>
        </scalingTime>
        <magnitudeHint>mb</magnitudeHint>
        <evaluationMode>automatic</evaluationMode>
      </amplitude>
      <amplitude publicID="quakeml:us.anss.org/amp/tm_crai_hhz_00/mb">
        <genericAmplitude>
          <value>4.85e-09</value>
        </genericAmplitude>
        <type>AMB</type>
        <unit>m</unit>
        <period>
          <value>0.9800</value>
        </period>
        <timeWindow>
          <begin>0.00</begin>
          <end>65.00</end>
          <reference>2025-12-31T13:52:54.08Z</reference>
        </timeWindow>
        <pickID>quakeml:us.anss.org/pick/7000rlq1/us_a8619_bpid-7006873694</pickID>
        <waveformID channelCode="HHZ" locationCode="00" networkCode="TM" stationCode="CRAI"/>
        <scalingTime>
          <value>2025-12-31T13:53:15.59Z</value>
        </scalingTime>
        <magnitudeHint>mb</magnitudeHint>
        <evaluationMode>automatic</evaluationMode>
      </amplitude>
      <amplitude publicID="quakeml:us.anss.org/amp/ak_d22k_bhz_--/mb">
        <genericAmplitude>
          <value>4.4e-09</value>
        </genericAmplitude>
        <type>AMB</type>
        <unit>m</unit>
        <period>
          <value>1.2000</value>
        </period>
        <timeWindow>
          <begin>0.00</begin>
          <end>65.00</end>
          <reference>2025-12-31T13:56:46.23Z</reference>
        </timeWindow>
        <pickID>quakeml:us.anss.org/pick/7000rlq1/us_a8619_bpid-7006873770</pickID>
        <waveformID channelCode="BHZ" locationCode="--" networkCode="AK" stationCode="D22K"/>
        <scalingTime>
          <value>2025-12-31T13:57:48.71Z</value>
        </scalingTime>
        <magnitudeHint>mb</magnitudeHint>
        <evaluationMode>automatic</evaluationMode>
      </amplitude>
      <amplitude publicID="quakeml:us.anss.org/amp/cn_dawy_hhz_--/mb">
        <genericAmplitude>
          <value>3.8e-09</value>
        </genericAmplitude>
        <type>AMB</type>
        <unit>m</unit>
        <period>
          <value>0.8800</value>
        </period>
        <timeWindow>
          <begin>0.00</begin>
          <end>65.00</end>
          <reference>2025-12-31T13:57:11Z</reference>
        </timeWindow>
        <pickID>quakeml:us.anss.org/pick/7000rlq1/us_a8619_bpid-7006873713</pickID>
        <waveformID channelCode="HHZ" locationCode="--" networkCode="CN" stationCode="DAWY"/>
        <scalingTime>
          <value>2025-12-31T13:57:32.53Z</value>
        </scalingTime>
        <magnitudeHint>mb</magnitudeHint>
        <evaluationMode>automatic</evaluationMode>
      </amplitude>
      <amplitude publicID="quakeml:us.anss.org/amp/ii_erm_bhz_10/mb">
        <genericAmplitude>
          <value>7.47e-08</value>
        </genericAmplitude>
        <type>AMB</type>
        <unit>m</unit>
        <period>
          <value>1.2000</value>
        </period>
        <timeWindow>
          <begin>0.00</begin>
          <end>65.00</end>
          <reference>2025-12-31T13:51:40.05Z</reference>
        </timeWindow>
        <pickID>quakeml:us.anss.org/pick/7000rlq1/us_a8619_bpid-7006873739</pickID>
        <waveformID channelCode="BHZ" locationCode="10" networkCode="II" stationCode="ERM"/>
        <scalingTime>
          <value>2025-12-31T13:52:36.5Z</value>
        </scalingTime>
        <magnitudeHint>mb</magnitudeHint>
        <evaluationMode>automatic</evaluationMode>
      </amplitude>
      <amplitude publicID="quakeml:us.anss.org/amp/ge_faki_bhz_--/mb">
        <genericAmplitude>
          <value>1.41e-08</value>
        </genericAmplitude>
        <type>AMB</type>
        <unit>m</unit>
        <period>
          <value>0.9000</value>
        </period>
        <timeWindow>
          <begin>0.00</begin>
          <end>65.00</end>
          <reference>2025-12-31T13:49:19.49Z</reference>
        </timeWindow>
        <pickID>quakeml:us.anss.org/pick/7000rlq1/us_a8619_bpid-7006873785</pickID>
        <waveformID channelCode="BHZ" locationCode="--" networkCode="GE" stationCode="FAKI"/>
        <scalingTime>
          <value>2025-12-31T13:49:53.64Z</value>
        </scalingTime>
        <magnitudeHint>mb</magnitudeHint>
        <evaluationMode>automatic</evaluationMode>
      </amplitude>
      <amplitude publicID="quakeml:us.anss.org/amp/ak_g19k_bhz_--/mb">
        <genericAmplitude>
          <value>8.55e-09</value>
        </genericAmplitude>
        <type>AMB</type>
        <unit>m</unit>
        <period>
          <value>1.3600</value>
        </period>
        <timeWindow>
          <begin>0.00</begin>
          <end>65.00</end>
          <reference>2025-12-31T13:56:29.83Z</reference>
        </timeWindow>
        <pickID>quakeml:us.anss.org/pick/7000rlq1/us_a8619_bpid-7006873707</pickID>
        <waveformID channelCode="BHZ" locationCode="--" networkCode="AK" stationCode="G19K"/>
        <scalingTime>
          <value>2025-12-31T13:56:52.19Z</value>
        </scalingTime>
        <magnitudeHint>mb</magnitudeHint>
        <evaluationMode>automatic</evaluationMode>
      </amplitude>
      <amplitude publicID="quakeml:us.anss.org/amp/av_gaki_bhz_--/mb">
        <genericAmplitude>
          <value>2.515e-07</value>
        </genericAmplitude>
        <type>AMB</type>
        <unit>m</unit>
        <period>
          <value>1.1600</value>
        </period>
        <timeWindow>
          <begin>0.00</begin>
          <end>65.00</end>
          <reference>2025-12-31T13:54:36.78Z</reference>
        </timeWindow>
        <pickID>quakeml:us.anss.org/pick/7000rlq1/us_a8619_bpid-7006873754</pickID>
        <waveformID channelCode="BHZ" locationCode="--" networkCode="AV" stationCode="GAKI"/>
        <scalingTime>
          <value>2025-12-31T13:54:57.9Z</value>
        </scalingTime>
        <magnitudeHint>mb</magnitudeHint>
        <evaluationMode>automatic</evaluationMode>
      </amplitude>
      <amplitude publicID="quakeml:us.anss.org/amp/uw_gnw_hhz_--/mb">
        <genericAmplitude>
          <value>1.005e-08</value>
        </genericAmplitude>
        <type>AMB</type>
        <unit>m</unit>
        <period>
          <value>1.0600</value>
        </period>
        <timeWindow>
          <begin>0.00</begin>
          <end>65.00</end>
          <reference>2025-12-31T13:58:09.14Z</reference>
        </timeWindow>
        <pickID>quakeml:us.anss.org/pick/7000rlq1/us_a8619_bpid-7006873714</pickID>
        <waveformID channelCode="HHZ" locationCode="--" networkCode="UW" stationCode="GNW"/>
        <scalingTime>
          <value>2025-12-31T13:58:30Z</value>
        </scalingTime>
        <magnitudeHint>mb</magnitudeHint>
        <evaluationMode>automatic</evaluationMode>
      </amplitude>
      <amplitude publicID="quakeml:us.anss.org/amp/ak_h16k_bhz_--/mb">
        <genericAmplitude>
          <value>8.4e-09</value>
        </genericAmplitude>
        <type>AMB</type>
        <unit>m</unit>
        <period>
          <value>1.4400</value>
        </period>
